ONEWEB-0509             
1 54127U 22138Q   23054.28443448  .00000076  00000+0  15727-3 0  9993
2 54127  87.9338 185.5690 0001569  94.8684 265.2628 13.19724454 18092
ONEWEB-0510             
1 54128U 22138R   23054.31256124  .00002423  00000+0  40848-3 0  9991
2 54128  86.9058 171.4241 0009524 223.3881 136.6586 14.69102004 19085
ONEWEB-0511             
1 54129U 22138S   23054.28020431  .00000007  00000+0 -14413-4 0  9995
2 54129  87.9394 185.5752 0001961  89.9626 270.1731 13.19725464 18128
ONEWEB-0512             
1 54130U 22138T   23053.89269788 -.00000345  00000+0 -89402-3 0  9998
2 54130  87.9292 185.6406 0001332  76.6564 283.4717 13.19724196 17176
ONEWEB-0513             
1 54131U 22138U   23054.37379140 -.00000377  00000+0 -69929-3 0  9994
2 54131  87.8748 185.4921 0002282 100.3703 259.7699 13.41708617 17964
ONEWEB-0514             
1 54132U 22138V   23054.28864888  .00000046  00000+0  82904-4 0  9993
2 54132  87.9286 185.5521 0001689 102.3379 257.7943 13.19726688 18112
ONEWEB-0515             
1 54133U 22138W   23054.32118631  .00002541  00000+0  42900-3 0  9990
2 54133  86.9083 171.4061 0010381 214.1097 145.9453 14.69051763 19080
ONEWEB-0516             
1 54134U 22138X   23054.33920310  .00000055  00000+0  10547-3 0  9997
2 54134  87.9298 185.5456 0001580 101.9873 258.1437 13.19726660 18122
ONEWEB-0517             
1 54135U 22138Y   23054.31812328  .00000112  00000+0  24796-3 0  9990
2 54135  87.9360 185.5437 0001503  83.8449 276.2855 13.19729199 18129
ONEWEB-0518             
1 54136U 22138Z   23054.26126275  .00000051  00000+0  96065-4 0  9995
2 54136  87.9346 185.5393 0001280 104.2426 255.8849 13.19729413 18114
ONEWEB-0519             
1 54137U 22138AA  23054.28652782  .00000073  00000+0  15051-3 0  9994
2 54137  87.9279 185.5555 0001506  83.4268 276.7036 13.19723952 18126
ONEWEB-0520             
1 54138U 22138AB  23053.41251562 -.00000085  00000+0 -24457-3 0  9995
2 54138  87.9338 185.7390 0001213  78.5863 281.5405 13.19726459 17121
ONEWEB-0521             
1 54139U 22138AC  23054.35394145  .00000043  00000+0  75774-4 0  9996
2 54139  87.9362 185.5470 0001838  96.4845 263.6497 13.19726740 18090
ONEWEB-0522             
1 54140U 22138AD  23054.33496385  .00000003  00000+0 -24702-4 0  9997
2 54140  87.9290 185.5508 0001423 100.4861 259.6432 13.19730463 18101
ONEWEB-0523             
1 54141U 22138AE  23053.76803723  .00002269  00000+0  38242-3 0  9990
2 54141  86.9063 171.5986 0009059 224.1038 135.9456 14.69091621 18145
ONEWEB-0524             
1 54142U 22138AF  23053.42979002  .00002421  00000+0  40907-3 0  9999
2 54142  86.9080 171.7430 0008210 226.7340 133.3191 14.69016052 18090
ONEWEB-0525             
1 54143U 22138AG  23054.27605393  .00000053  00000+0  10099-3 0  9991
2 54143  87.9283 185.5606 0001527  89.5080 270.6228 13.19750136 18105
ONEWEB-0526             
1 54144U 22138AH  23054.30969552  .00000059  00000+0  11548-3 0  9992
2 54144  87.9364 185.5633 0001517 104.4933 255.6368 13.19729125 18099
ONEWEB-0529             
1 54145U 22138AJ  23054.31391558  .00000080  00000+0  16700-3 0  9998
2 54145  87.9294 185.5546 0001071  98.4760 261.6494 13.19725599 18111
ONEWEB-0531             
1 54146U 22138AK  23053.43179474  .00002488  00000+0  41967-3 0  9999
2 54146  86.9070 171.7358 0009306 223.7709 136.2770 14.69090752 18099
ONEWEB-0535             
1 54147U 22138AL  23054.34549745  .00000002  00000+0 -27761-4 0  9991
2 54147  87.9293 185.5432 0001647 101.6165 258.5152 13.19723733 18137
ONEWEB-0536             
1 54148U 22138AM  23054.32410825  .00002532  00000+0  42804-3 0  9999
2 54148  86.9043 171.4117 0009047 216.0924 143.9682 14.69013285 19080
GONETS-M 23             
1 54150U 22139A   23054.30779419  .00000010  00000+0  00000+0 0  9995
2 54150  82.5088  20.1012 0021147 345.2738  14.7726 12.42879317 15345
GONETS-M 24             
1 54151U 22139B   23054.35917061  .00000010  00000+0  00000+0 0  9998
2 54151  82.5013  19.9429 0016186 355.5557   4.5390 12.42877939 15355
GONETS-M 25             
1 54152U 22139C   23054.34400117  .00000010  00000+0  00000+0 0  9997
2 54152  82.5070  19.9911 0020047 354.0602   6.0242 12.42869522 15353
SKIF-D                  
1 54153U 22139D   23054.11300343  .00000021  00000+0  00000+0 0  9995
2 54153  90.0017  96.7808 0006147 192.7684 167.2911  5.00438043  3579
STARLINK-5290           
1 54157U 22141A   23054.02372275 -.00001360  00000+0 -67432-4 0  9991
2 54157  53.2160 320.1545 0000884  79.7148 280.3944 15.08823494 18044
STARLINK-5297           
1 54158U 22141B   23054.03110309  .00015439  00000+0  98574-3 0  9991
2 54158  53.2173 320.1987 0001698  95.9399 264.1786 15.08848869 18048
STARLINK-5294           
1 54159U 22141C   23053.93264564 -.00001404  00000+0 -70140-4 0  9992
2 54159  53.2175 320.3102 0001165  53.2968 306.8131 15.08827734 18035
STARLINK-5233           
1 54160U 22141D   23054.25001157 -.01127107  00000+0 -12336-1 0  9997
2 54160  53.2107 278.9676 0001200  87.2115 156.7960 15.65190449 18634
STARLINK-5269           
1 54161U 22141E   23054.02739520  .00017379  00000+0  11069-2 0  9994
2 54161  53.2166 320.1735 0001118  78.2126 281.8991 15.08853847 18040
STARLINK-5273           
1 54162U 22141F   23054.08627500 -.00000424  00000+0 -85358-5 0  9995
2 54162  53.2153 319.8348 0001165  86.2508 273.8618 15.08832615 18055
STARLINK-5161           
1 54163U 22141G   23054.09825758 -.00001328  00000+0 -65343-4 0  9997
2 54163  53.2191 309.9216 0001539  83.3969 276.7198 15.08834508 18199
STARLINK-5278           
1 54164U 22141H   23053.90321782 -.00001101  00000+0 -51111-4 0  9992
2 54164  53.2176 310.8425 0001028  87.1164 272.9946 15.08829237 18167
STARLINK-5279           
1 54165U 22141J   23054.21507012  .00008113  00000+0  52737-3 0  9992
2 54165  53.2156 319.2192 0001512  89.5380 270.5786 15.08831496 18070
STARLINK-5280           
1 54166U 22141K   23054.09457240 -.00001749  00000+0 -91814-4 0  9996
2 54166  53.2174 309.9040 0001422  76.2894 283.8256 15.08837518 18195
STARLINK-5243           
1 54167U 22141L   23054.12768204  .00024968  00000+0  15817-2 0  9999
2 54167  53.2155 319.3835 0001669  72.5850 287.5324 15.08831269 18055
STARLINK-5245           
1 54168U 22141M   23053.89216260 -.00000701  00000+0 -25994-4 0  9993
2 54168  53.2177 310.7740 0001123  87.5502 272.5619 15.08830249 18165
STARLINK-5282           
1 54169U 22141N   23053.97306274 -.00002336  00000+0 -12874-3 0  9996
2 54169  53.2187 309.8658 0000724  79.5312 280.5762 15.08833683 18185
STARLINK-5155           
1 54170U 22141P   23054.08719742  .00000089  00000+0  23686-4 0  9994
2 54170  53.2168 309.8604 0001284  76.8416 283.2719 15.08830572 18180
STARLINK-5229           
1 54171U 22141Q   23053.99381938  .00010591  00000+0  68253-3 0  9993
2 54171  53.2177 314.9739 0001370  73.8749 286.2394 15.08838390 18110
STARLINK-5117           
1 54172U 22141R   23054.07982977 -.00000585  00000+0 -18644-4 0  9998
2 54172  53.2181 309.8141 0001304  96.5600 263.5540 15.08833564 18198
STARLINK-5242           
1 54173U 22141S   23054.10922161 -.00001743  00000+0 -91429-4 0  9991
2 54173  53.2182 309.2884 0001253  93.6886 266.4250 15.08836715 18208
STARLINK-5248           
1 54174U 22141T   23054.07275415  .00004994  00000+0  39944-4 0  9994
2 54174  53.2129 279.0307 0001152 107.3761 252.7385 15.73220761 18619
STARLINK-5256           
1 54175U 22141U   23054.08351457  .00009245  00000+0  59824-3 0  9999
2 54175  53.2161 309.8332 0001133 102.3274 257.7845 15.08834940 18196
STARLINK-5154           
1 54176U 22141V   23053.87006481 -.00002546  00000+0 -14199-3 0  9995
2 54176  53.2175 310.6345 0001609 105.7867 254.3303 15.08824234 18163
STARLINK-5186           
1 54177U 22141W   23053.74495235 -.00002049  00000+0 -11076-3 0  9990
2 54177  53.2168 311.2750 0001053  85.0910 275.0203 15.08823204 18148
STARLINK-5164           
1 54178U 22141X   23053.91743781  .00001005  00000+0  84676-4 0  9998
2 54178  53.2176 310.2008 0000912  60.1528 299.9554 15.07187320 18173
STARLINK-5122           
1 54179U 22141Y   23053.80750927 -.00002648  00000+0 -14843-3 0  9991
2 54179  53.2168 310.9493 0001334  94.6961 265.4184 15.08824589 18153
STARLINK-5228           
1 54180U 22141Z   23053.91786923 -.00002015  00000+0 -10858-3 0  9990
2 54180  53.2189 310.2285 0001107  67.4145 292.6965 15.08830089 18173
STARLINK-5227           
1 54181U 22141AA  23054.12764712 -.00001032  00000+0 -46778-4 0  9996
2 54181  53.2169 309.4034 0001307  91.1561 268.9581 15.08829307 18432
STARLINK-5231           
1 54182U 22141AB  23054.25001157 -.00027480  00000+0 -47760-3 0  9994
2 54182  53.2150 281.6571 0000866  85.5926 269.7856 15.49903882 18835
STARLINK-5239           
1 54183U 22141AC  23053.92155378 -.00001903  00000+0 -10153-3 0  9991
2 54183  53.2162 310.2462 0001046  80.2989 279.8121 15.08825772 18179
STARLINK-5162           
1 54184U 22141AD  23053.98043505 -.00001160  00000+0 -54835-4 0  9997
2 54184  53.2175 309.9048 0001295  73.0748 287.0386 15.08819379 18415
STARLINK-5235           
1 54185U 22141AE  23054.12396238  .00004155  00000+0  27904-3 0  9990
2 54185  53.2168 309.3771 0001370  90.1883 269.9266 15.08833410 18439
STARLINK-5194           
1 54186U 22141AF  23053.90046751  .00000342  00000+0  39561-4 0  9995
2 54186  53.2159 300.8454 0001150  84.5048 275.6076 15.08830018 18535
STARLINK-5240           
1 54187U 22141AG  23053.93261596 -.00001238  00000+0 -59736-4 0  9998
2 54187  53.2163 310.3293 0001334 109.6572 250.4564 15.08824735 18175
STARLINK-5238           
1 54188U 22141AH  23054.09549174  .00000238  00000+0  33015-4 0  9997
2 54188  53.2155 299.9319 0001050  71.3978 288.7128 15.08832767 18565
STARLINK-5182           
1 54189U 22141AJ  23053.98231657 -.00001652  00000+0 -89985-4 0  9999
2 54189  53.2185 309.8954 0000961  68.3318 291.7776 15.07193645 18410
